GECAM-A                 
1 47234U 20094A   26058.13989985  .00002379  00000+0  17329-3 0  9993
2 47234  28.9961  20.3521 0010700 243.6219 116.3280 15.00334340285149
STARLINK-5395           
1 54831U 22177M   26068.55334885  .00000141  00000+0  25505-4 0  9999
2 54831  43.0028 134.1698 0001324 263.6838  96.3853 15.02536091176930
