[{"OBJECT_NAME":"GECAM-A","OBJECT_ID":"2020-094A","EPOCH":"2026-02-27T03:21:27.347040","MEAN_MOTION":15.0033434,"ECCENTRICITY":0.00107,"INCLINATION":28.9961,"RA_OF_ASC_NODE":20.3521,"ARG_OF_PERICENTER":243.6219,"MEAN_ANOMALY":116.328,"EPHEMERIS_TYPE":0,"CLASSIFICATION_TYPE":"U","NORAD_CAT_ID":47234,"ELEMENT_SET_NO":999,"REV_AT_EPOCH":28514,"BSTAR":0.00017329,"MEAN_MOTION_DOT":2.379e-5,"MEAN_MOTION_DDOT":0},{"OBJECT_NAME":"STARLINK-5395","OBJECT_ID":"2022-177M","EPOCH":"2026-03-09T13:16:49.340640","MEAN_MOTION":15.02536091,"ECCENTRICITY":0.0001324,"INCLINATION":43.0028,"RA_OF_ASC_NODE":134.1698,"ARG_OF_PERICENTER":263.6838,"MEAN_ANOMALY":96.3853,"EPHEMERIS_TYPE":0,"CLASSIFICATION_TYPE":"U","NORAD_CAT_ID":54831,"ELEMENT_SET_NO":999,"REV_AT_EPOCH":17693,"BSTAR":2.5505e-5,"MEAN_MOTION_DOT":1.41e-6,"MEAN_MOTION_DDOT":0}]
